EUTELSAT KONNECT VHTS   
1 53765U 22110A   25365.02197302  .00000034  00000+0  00000+0 0  9992
2 53765   0.0588  97.7209 0002671 158.9247 213.6556  1.00268847  5150
EUTELSAT HOTBIRD 13F    
1 54048U 22134A   25365.03943154  .00000105  00000+0  00000+0 0  9997
2 54048   0.0585 288.6899 0002194  62.0952 136.1078  1.00273080 11695
EUTELSAT HOTBIRD 13G    
1 54225U 22146A   25365.01642086  .00000104  00000+0  00000+0 0  9994
2 54225   0.0568 226.8670 0001827 319.4818 292.2407  1.00269482  5780
EUTELSAT 10B            
1 54259U 22157A   25365.11026808  .00000085  00000+0  00000+0 0  9990
2 54259   0.0605  94.9763 0000793  96.7704 317.7336  1.00268154 11344
